OBJECT_NAME,OBJECT_ID,EPOCH,MEAN_MOTION,ECCENTRICITY,INCLINATION,RA_OF_ASC_NODE,ARG_OF_PERICENTER,MEAN_ANOMALY,EPHEMERIS_TYPE,CLASSIFICATION_TYPE,NORAD_CAT_ID,ELEMENT_SET_NO,REV_AT_EPOCH,BSTAR,MEAN_MOTION_DOT,MEAN_MOTION_DDOT
ONEWEB-0617,2023-004U,2026-06-25T14:41:38.641056,13.11418989,.0002146,87.8884,19.3897,80.3874,279.7496,0,U,55158,999,16696,-.17967E-2,-.624E-5,0
ONEWEB-0618,2023-004V,2026-06-25T12:33:54.622368,15.13200962,.000939,86.9096,174.2502,259.2350,100.7833,0,U,55159,999,18352,.32435E-3,.5792E-4,0
ONEWEB-0619,2023-004W,2026-06-25T12:40:25.927968,13.17649270,.0001741,87.9145,4.1894,75.6668,284.4657,0,U,55160,999,16869,.34535E-6,.13E-6,0
ONEWEB-0620,2023-004X,2026-06-25T14:34:18.033888,13.11417510,.0001998,87.8883,19.4007,93.3238,266.8118,0,U,55161,999,16693,-.37604E-3,-.121E-5,0
ONEWEB-0621,2023-004Y,2026-06-25T13:23:30.742080,13.11415306,.0001945,87.8890,19.3997,80.9447,279.1901,0,U,55162,999,16690,.14045E-2,.51E-5,0
ONEWEB-0622,2023-004Z,2026-06-25T13:30:50.334912,13.11414602,.0002544,87.8890,19.4013,83.2374,276.9044,0,U,55163,999,16689,.10083E-2,.37E-5,0
ONEWEB-0623,2023-004AA,2026-06-25T14:22:28.237152,13.17649901,.0002327,87.9131,4.2046,71.9406,288.1979,0,U,55164,999,16869,-.10931E-3,-.3E-6,0
ONEWEB-0624,2023-004AB,2026-06-25T12:02:24.254304,13.12928699,.0001863,87.8948,348.9297,88.4615,271.6728,0,U,55165,999,16916,-.92603E-3,-.323E-5,0
ONEWEB-0625,2023-004AC,2026-06-25T12:18:33.696864,13.17649057,.0001668,87.9133,4.2176,88.6252,271.5070,0,U,55166,999,16867,.61612E-4,.37E-6,0
ONEWEB-0626,2023-004AD,2026-06-25T12:03:58.172832,13.17656752,.0002078,87.9132,4.2193,100.5804,259.5561,0,U,55167,999,16867,.29497E-4,.24E-6,0
ONEWEB-0627,2023-004AE,2026-06-25T13:36:18.984960,13.17648452,.0002153,87.9132,4.2070,77.4552,282.6820,0,U,55168,999,16868,.43821E-4,.3E-6,0
ONEWEB-0628,2023-004AF,2026-06-25T11:40:04.630080,13.12440782,.0002119,87.8951,349.0021,74.5316,285.6047,0,U,55169,999,16912,.37425E-3,.147E-5,0
ONEWEB-0629,2023-004AG,2026-06-25T13:01:04.667232,13.17648085,.0001753,87.9132,4.2077,79.6348,280.4981,0,U,55170,999,16868,.65118E-4,.38E-6,0
ONEWEB-0631,2023-004AH,2026-06-25T19:51:17.519904,13.18685849,.000235,87.9176,333.7165,98.6485,261.4913,0,U,55171,999,17081,.10808E-3,.56E-6,0
ONEWEB-0709,2023-004AJ,2026-06-25T14:19:38.995104,13.11418029,.0002147,87.8880,19.4048,111.5463,248.5894,0,U,55172,999,16697,-.12262E-2,-.422E-5,0
ONEWEB-0710,2023-004AK,2026-06-25T13:21:43.396992,13.17650189,.0002018,87.9129,4.2004,87.1353,273.0009,0,U,55173,999,16868,.14834E-4,.19E-6,0
ONEWEB-0711,2023-004AL,2026-06-25T13:38:09.565728,13.11414137,.0002423,87.8882,19.3979,76.0320,284.1077,0,U,55174,999,16693,.39155E-3,.151E-5,0
ONEWEB-0713,2023-004AM,2026-06-25T14:05:00.364128,13.11416350,.0002157,87.8884,19.3959,80.7597,279.3775,0,U,55175,999,16692,-.14376E-2,-.497E-5,0
ONEWEB-0715,2023-004AN,2026-06-25T13:57:40.353984,13.11414649,.0002269,87.8884,19.3975,101.8508,258.2874,0,U,55176,999,16696,-.12461E-2,-.429E-5,0
ONEWEB-0716,2023-004AP,2026-06-25T13:12:00.094176,13.17650659,.0001625,87.9132,4.2044,90.6469,269.4849,0,U,55177,999,16868,.11618E-3,.58E-6,0
ONEWEB-0717,2023-004AQ,2026-06-25T12:47:43.218240,13.17648847,.0002397,87.9145,4.1960,84.7556,275.3849,0,U,55178,999,16873,-.32759E-5,.12E-6,0
ONEWEB-0719,2023-004AR,2026-06-25T13:02:18.064032,13.17649759,.0001717,87.9140,4.1744,86.1220,274.0108,0,U,55179,999,16868,.11081E-3,.56E-6,0
ONEWEB-0530,2023-029A,2026-06-25T19:14:49.828704,13.20772119,.0002141,87.9184,272.7516,87.9767,272.1612,0,U,55796,999,16228,-.1643E-4,.6E-7,0
ONEWEB-0534,2023-029B,2026-06-25T17:08:45.538080,13.20772342,.000192,87.9190,272.7697,101.7983,258.3365,0,U,55797,999,16227,-.22977E-3,-.8E-6,0
ONEWEB-0556,2023-029C,2026-06-25T19:07:31.255392,13.20773715,.0001295,87.9184,272.7524,82.4190,277.7090,0,U,55798,999,16228,.53782E-4,.35E-6,0
ONEWEB-0562,2023-029D,2026-06-25T16:59:03.925248,13.20771797,.0001946,87.9186,272.7513,75.2205,284.9143,0,U,55799,999,16227,.12329E-3,.63E-6,0
ONEWEB-0563,2023-029E,2026-06-25T16:51:47.557728,13.20772293,.000184,87.9190,272.7827,105.0471,255.0866,0,U,55800,999,16226,-.29924E-3,-.109E-5,0
ONEWEB-0564,2023-029F,2026-06-25T16:42:06.560928,13.20771329,.000204,87.9183,272.7573,88.6629,271.4738,0,U,55801,999,16227,.11545E-3,.6E-6,0
ONEWEB-0638,2023-029G,2026-06-25T20:12:41.679648,13.14503860,.0001602,87.8962,288.0261,86.9009,273.2304,0,U,55802,999,16053,.28501E-3,.118E-5,0
ONEWEB-0639,2023-029H,2026-06-25T19:50:22.815744,13.19725174,.0001754,87.9181,303.2549,130.2053,229.9234,0,U,55803,999,16004,-.10639E-3,-.3E-6,0
ONEWEB-0640,2023-029J,2026-06-25T20:26:23.002368,13.14503787,.0001169,87.8957,288.0150,95.2362,264.8901,0,U,55804,999,16055,.35136E-3,.143E-5,0
