[
  {
    "name": "ONEWEB-0617",
    "noradId": "55158",
    "line1": "1 55158U 23004U   26176.61225279 -.00000624  00000+0 -17967-2 0  9994",
    "line2": "2 55158  87.8884  19.3897 0002146  80.3874 279.7496 13.11418989166966"
  },
  {
    "name": "ONEWEB-0618",
    "noradId": "55159",
    "line1": "1 55159U 23004V   26176.52354887  .00005792  00000+0  32435-3 0  9990",
    "line2": "2 55159  86.9096 174.2502 0009390 259.2350 100.7833 15.13200962183523"
  },
  {
    "name": "ONEWEB-0619",
    "noradId": "55160",
    "line1": "1 55160U 23004W   26176.52807787  .00000013  00000+0  34535-6 0  9991",
    "line2": "2 55160  87.9145   4.1894 0001741  75.6668 284.4657 13.17649270168696"
  },
  {
    "name": "ONEWEB-0620",
    "noradId": "55161",
    "line1": "1 55161U 23004X   26176.60715317 -.00000121  00000+0 -37604-3 0  9997",
    "line2": "2 55161  87.8883  19.4007 0001998  93.3238 266.8118 13.11417510166939"
  },
  {
    "name": "ONEWEB-0621",
    "noradId": "55162",
    "line1": "1 55162U 23004Y   26176.55799470  .00000510  00000+0  14045-2 0  9997",
    "line2": "2 55162  87.8890  19.3997 0001945  80.9447 279.1901 13.11415306166906"
  },
  {
    "name": "ONEWEB-0622",
    "noradId": "55163",
    "line1": "1 55163U 23004Z   26176.56308258  .00000370  00000+0  10083-2 0  9991",
    "line2": "2 55163  87.8890  19.4013 0002544  83.2374 276.9044 13.11414602166897"
  },
  {
    "name": "ONEWEB-0623",
    "noradId": "55164",
    "line1": "1 55164U 23004AA  26176.59893793 -.00000030  00000+0 -10931-3 0  9996",
    "line2": "2 55164  87.9131   4.2046 0002327  71.9406 288.1979 13.17649901168694"
  },
  {
    "name": "ONEWEB-0624",
    "noradId": "55165",
    "line1": "1 55165U 23004AB  26176.50166961 -.00000323  00000+0 -92603-3 0  9999",
    "line2": "2 55165  87.8948 348.9297 0001863  88.4615 271.6728 13.12928699169166"
  },
  {
    "name": "ONEWEB-0625",
    "noradId": "55166",
    "line1": "1 55166U 23004AC  26176.51289001  .00000037  00000+0  61612-4 0  9999",
    "line2": "2 55166  87.9133   4.2176 0001668  88.6252 271.5070 13.17649057168671"
  },
  {
    "name": "ONEWEB-0626",
    "noradId": "55167",
    "line1": "1 55167U 23004AD  26176.50275663  .00000024  00000+0  29497-4 0  9999",
    "line2": "2 55167  87.9132   4.2193 0002078 100.5804 259.5561 13.17656752168674"
  },
  {
    "name": "ONEWEB-0627",
    "noradId": "55168",
    "line1": "1 55168U 23004AE  26176.56688640  .00000030  00000+0  43821-4 0  9993",
    "line2": "2 55168  87.9132   4.2070 0002153  77.4552 282.6820 13.17648452168689"
  },
  {
    "name": "ONEWEB-0628",
    "noradId": "55169",
    "line1": "1 55169U 23004AF  26176.48616470  .00000147  00000+0  37425-3 0  9998",
    "line2": "2 55169  87.8951 349.0021 0002119  74.5316 285.6047 13.12440782169127"
  },
  {
    "name": "ONEWEB-0629",
    "noradId": "55170",
    "line1": "1 55170U 23004AG  26176.54241513  .00000038  00000+0  65118-4 0  9999",
    "line2": "2 55170  87.9132   4.2077 0001753  79.6348 280.4981 13.17648085168687"
  },
  {
    "name": "ONEWEB-0631",
    "noradId": "55171",
    "line1": "1 55171U 23004AH  26176.82728611  .00000056  00000+0  10808-3 0  9995",
    "line2": "2 55171  87.9176 333.7165 0002350  98.6485 261.4913 13.18685849170813"
  },
  {
    "name": "ONEWEB-0709",
    "noradId": "55172",
    "line1": "1 55172U 23004AJ  26176.59697911 -.00000422  00000+0 -12262-2 0  9992",
    "line2": "2 55172  87.8880  19.4048 0002147 111.5463 248.5894 13.11418029166971"
  },
  {
    "name": "ONEWEB-0710",
    "noradId": "55173",
    "line1": "1 55173U 23004AK  26176.55675228  .00000019  00000+0  14834-4 0  9995",
    "line2": "2 55173  87.9129   4.2004 0002018  87.1353 273.0009 13.17650189168688"
  },
  {
    "name": "ONEWEB-0711",
    "noradId": "55174",
    "line1": "1 55174U 23004AL  26176.56816627  .00000151  00000+0  39155-3 0  9996",
    "line2": "2 55174  87.8882  19.3979 0002423  76.0320 284.1077 13.11414137166932"
  },
  {
    "name": "ONEWEB-0713",
    "noradId": "55175",
    "line1": "1 55175U 23004AM  26176.58680977 -.00000497  00000+0 -14376-2 0  9998",
    "line2": "2 55175  87.8884  19.3959 0002157  80.7597 279.3775 13.11416350166924"
  },
  {
    "name": "ONEWEB-0715",
    "noradId": "55176",
    "line1": "1 55176U 23004AN  26176.58171706 -.00000429  00000+0 -12461-2 0  9992",
    "line2": "2 55176  87.8884  19.3975 0002269 101.8508 258.2874 13.11414649166963"
  },
  {
    "name": "ONEWEB-0716",
    "noradId": "55177",
    "line1": "1 55177U 23004AP  26176.55000109  .00000058  00000+0  11618-3 0  9998",
    "line2": "2 55177  87.9132   4.2044 0001625  90.6469 269.4849 13.17650659168683"
  },
  {
    "name": "ONEWEB-0717",
    "noradId": "55178",
    "line1": "1 55178U 23004AQ  26176.53313910  .00000012  00000+0 -32759-5 0  9996",
    "line2": "2 55178  87.9145   4.1960 0002397  84.7556 275.3849 13.17648847168730"
  },
  {
    "name": "ONEWEB-0719",
    "noradId": "55179",
    "line1": "1 55179U 23004AR  26176.54326463  .00000056  00000+0  11081-3 0  9995",
    "line2": "2 55179  87.9140   4.1744 0001717  86.1220 274.0108 13.17649759168686"
  },
  {
    "name": "ONEWEB-0530",
    "noradId": "55796",
    "line1": "1 55796U 23029A   26176.80196561  .00000006  00000+0 -16430-4 0  9990",
    "line2": "2 55796  87.9184 272.7516 0002141  87.9767 272.1612 13.20772119162286"
  },
  {
    "name": "ONEWEB-0534",
    "noradId": "55797",
    "line1": "1 55797U 23029B   26176.71441595 -.00000080  00000+0 -22977-3 0  9996",
    "line2": "2 55797  87.9190 272.7697 0001920 101.7983 258.3365 13.20772342162271"
  },
  {
    "name": "ONEWEB-0556",
    "noradId": "55798",
    "line1": "1 55798U 23029C   26176.79688953  .00000035  00000+0  53782-4 0  9993",
    "line2": "2 55798  87.9184 272.7524 0001295  82.4190 277.7090 13.20773715162280"
  },
  {
    "name": "ONEWEB-0562",
    "noradId": "55799",
    "line1": "1 55799U 23029D   26176.70768432  .00000063  00000+0  12329-3 0  9998",
    "line2": "2 55799  87.9186 272.7513 0001946  75.2205 284.9143 13.20771797162277"
  },
  {
    "name": "ONEWEB-0563",
    "noradId": "55800",
    "line1": "1 55800U 23029E   26176.70263377 -.00000109  00000+0 -29924-3 0  9991",
    "line2": "2 55800  87.9190 272.7827 0001840 105.0471 255.0866 13.20772293162265"
  },
  {
    "name": "ONEWEB-0564",
    "noradId": "55801",
    "line1": "1 55801U 23029F   26176.69590927  .00000060  00000+0  11545-3 0  9998",
    "line2": "2 55801  87.9183 272.7573 0002040  88.6629 271.4738 13.20771329162270"
  },
  {
    "name": "ONEWEB-0638",
    "noradId": "55802",
    "line1": "1 55802U 23029G   26176.84214907  .00000118  00000+0  28501-3 0  9991",
    "line2": "2 55802  87.8962 288.0261 0001602  86.9009 273.2304 13.14503860160537"
  },
  {
    "name": "ONEWEB-0639",
    "noradId": "55803",
    "line1": "1 55803U 23029H   26176.82665296 -.00000030  00000+0 -10639-3 0  9999",
    "line2": "2 55803  87.9181 303.2549 0001754 130.2053 229.9234 13.19725174160046"
  },
  {
    "name": "ONEWEB-0640",
    "noradId": "55804",
    "line1": "1 55804U 23029J   26176.85165512  .00000143  00000+0  35136-3 0  9991",
    "line2": "2 55804  87.8957 288.0150 0001169  95.2362 264.8901 13.14503787160552"
  }
]